GLOBALSTAR M070         
1 32264U 07048B   23308.82369291 -.00000086  00000+0  98615-4 0  9999
2 32264  51.9725 126.9293 0000678 112.9540 260.7142 12.62281479739118
GLOBALSTAR M066         
1 32265U 07048C   23308.89559946 -.00000078  00000+0  14104-3 0  9996
2 32265  51.9698 348.7678 0000609  70.0862 102.5941 12.62275446741383
GLOBALSTAR M079         
1 37188U 10054A   23308.87057472 -.00000103  00000+0  62715-5 0  9993
2 37188  52.0014 136.8050 0001167  90.8252  17.4267 12.62269642601908
GLOBALSTAR M074         
1 37189U 10054B   23308.79683118 -.00000104  00000+0 -30815-5 0  9995
2 37189  51.9992 136.4427 0000969  94.9400 278.5508 12.62271744602506
GLOBALSTAR M076         
1 37190U 10054C   23308.82309969 -.00000083  00000+0  11602-3 0  9996
2 37190  52.0003 136.4813 0001413 110.7957 261.3436 12.62263403602223
GLOBALSTAR M077         
1 37191U 10054D   23308.65214747 -.00000105  00000+0 -41121-5 0  9994
2 37191  52.0058  93.6861 0000832 109.4795 264.6330 12.62267988602579
GLOBALSTAR M067 [+]     
1 32263U 07048A   23308.82118755 -.00000042  00000+0  41265-3 0  9995
2 32263  51.9740 323.3323 0000906 144.1515  26.7826 12.40633794736207
GLOBALSTAR M068 [-]     
1 32266U 07048D   23309.23121203 -.00000039  00000+0  36125-3 0  9991
2 32266  51.9889 300.5558 0000589 304.0020  71.8513 12.62770234743315
